{"fetched_at":"2026-03-30T06:02:59Z","count":15439,"tles":[{"name":"STARLINK-36074","line1":"1 66900U 25283Y   26087.83412498  .00032659  00000+0  11097-2 0  9997","line2":"2 66900  53.1595 295.3560 0000725  65.6618 294.4458 15.30206456 18778","category":"Starlink"}]}