{
  "norad_id": 66900,
  "name": "STARLINK-36074",
  "history": [
    {
      "epoch": "2026-03-28T20:01:08.398272",
      "apogee_km": 475.6932764622452,
      "perigee_km": 474.6983096073527,
      "latitude_deg": -11.49008554616588,
      "longitude_deg": -129.92400192003697,
      "semi_major_axis_km": 6853.332793034799,
      "eccentricity": 7.259e-05,
      "inclination_deg": 53.1595,
      "raan_deg": 295.356,
      "arg_perigee_deg": 65.6618,
      "mean_anomaly_deg": 294.4458,
      "mean_motion_rev_day": 15.30206456
    }
  ]
}